{"type": "FeatureCollection", "features": [ {"type": "Feature", "properties": {"norad_id": 40115, "name": "WORLDVIEW-3 (WV-3)", "group": "resource", "lat": 13.296979945422532, "lon": 50.201748532044746, "alt_km": 616.0522060531657, "timestamp": "2025-12-05T16:54:14.326917+00:00", "meta": {"OBJECT_NAME": "WORLDVIEW-3 (WV-3)", "OBJECT_ID": "2014-048A", "EPOCH": "2025-12-05T05:31:38.222400", "MEAN_MOTION": 14.85482171, "ECCENTRICITY": 0.00042343, "INCLINATION": 97.8625, "RA_OF_ASC_NODE": 51.6052, "ARG_OF_PERICENTER": 211.1891, "MEAN_ANOMALY": 148.9073, "EPHEMERIS_TYPE": 0, "CLASSIFICATION_TYPE": "U", "NORAD_CAT_ID": 40115, "ELEMENT_SET_NO": 999, "REV_AT_EPOCH": 61312, "BSTAR": 0.00031049206, "MEAN_MOTION_DOT": 2.626e-05, "MEAN_MOTION_DDOT": 0}, "tle": {"line1": "1 40115U 14048A   25339.23030350  .00002626  00000+0  31049-3 0  9991", "line2": "2 40115  97.8625  51.6052 0004234 211.1891 148.9073 14.85482171613121"}}, "geometry": {"type": "Point", "coordinates": [50.201748532044746, 13.296979945422532]}}, {"type": "Feature", "properties": {"norad_id": 40118, "name": "GAOFEN-2", "group": "resource", "lat": -44.79664413032611, "lon": 46.92785728114046, "alt_km": 640.0223480478953, "timestamp": "2025-12-05T16:54:14.326927+00:00", "meta": {"OBJECT_NAME": "GAOFEN-2", "OBJECT_ID": "2014-049A", "EPOCH": "2025-12-05T07:22:37.297632", "MEAN_MOTION": 14.80587773, "ECCENTRICITY": 0.0008314, "INCLINATION": 98.0396, "RA_OF_ASC_NODE": 38.4626, "ARG_OF_PERICENTER": 134.3765, "MEAN_ANOMALY": 225.8129, "EPHEMERIS_TYPE": 0, "CLASSIFICATION_TYPE": "U", "NORAD_CAT_ID": 40118, "ELEMENT_SET_NO": 999, "REV_AT_EPOCH": 61054, "BSTAR": 0.00019621205, "MEAN_MOTION_DOT": 1.452e-05, "MEAN_MOTION_DDOT": 0}, "tle": {"line1": "1 40118U 14049A   25339.30737613  .00001452  00000+0  19621-3 0  9997", "line2": "2 40118  98.0396  38.4626 0008314 134.3765 225.8129 14.80587773610540"}}, "geometry": {"type": "Point", "coordinates": [46.92785728114046, -44.79664413032611]}}, {"type": "Feature", "properties": {"norad_id": 40143, "name": "YAOGAN-21", "group": "resource", "lat": -82.7767000388026, "lon": 107.13680042477606, "alt_km": 508.7308166407656, "timestamp": "2025-12-05T16:54:14.326937+00:00", "meta": {"OBJECT_NAME": "YAOGAN-21", "OBJECT_ID": "2014-053A", "EPOCH": "2025-12-05T07:50:15.586656", "MEAN_MOTION": 15.2353899, "ECCENTRICITY": 0.00101955, "INCLINATION": 97.1767, "RA_OF_ASC_NODE": 22.9623, "ARG_OF_PERICENTER": 64.3729, "MEAN_ANOMALY": 295.8561, "EPHEMERIS_TYPE": 0, "CLASSIFICATION_TYPE": "U", "NORAD_CAT_ID": 40143, "ELEMENT_SET_NO": 999, "REV_AT_EPOCH": 62541, "BSTAR": 0.00047369589, "MEAN_MOTION_DOT": 0.00011273, "MEAN_MOTION_DDOT": 0}, "tle": {"line1": "1 40143U 14053A   25339.32656929  .00011273  00000+0  47370-3 0  9996", "line2": "2 40143  97.1767  22.9623 0010195  64.3729 295.8561 15.23538990625411"}}, "geometry": {"type": "Point", "coordinates": [107.13680042477606, -82.7767000388026]}}, {"type": "Feature", "properties": {"norad_id": 40275, "name": "YAOGAN-22", "group": "resource", "lat": -32.17197323921532, "lon": 129.8821176155556, "alt_km": 1205.6351234679105, "timestamp": "2025-12-05T16:54:14.326946+00:00", "meta": {"OBJECT_NAME": "YAOGAN-22", "OBJECT_ID": "2014-063A", "EPOCH": "2025-12-05T07:56:39.155136", "MEAN_MOTION": 13.15522529, "ECCENTRICITY": 0.00058933, "INCLINATION": 100.7418, "RA_OF_ASC_NODE": 122.646, "ARG_OF_PERICENTER": 266.1044, "MEAN_ANOMALY": 93.9394, "EPHEMERIS_TYPE": 0, "CLASSIFICATION_TYPE": "U", "NORAD_CAT_ID": 40275, "ELEMENT_SET_NO": 999, "REV_AT_EPOCH": 53432, "BSTAR": 8.1537493e-05, "MEAN_MOTION_DOT": -1.6e-07, "MEAN_MOTION_DDOT": 0}, "tle": {"line1": "1 40275U 14063A   25339.33100874 -.00000016  00000+0  81537-4 0  9995", "line2": "2 40275 100.7418 122.6460 0005893 266.1044  93.9394 13.15522529534329"}}, "geometry": {"type": "Point", "coordinates": [129.8821176155556, -32.17197323921532]}}, {"type": "Feature", "properties": {"norad_id": 40298, "name": "ASNARO", "group": "resource", "lat": 64.45194567833214, "lon": 40.1213313862715, "alt_km": 500.95841319321426, "timestamp": "2025-12-05T16:54:14.326956+00:00", "meta": {"OBJECT_NAME": "ASNARO", "OBJECT_ID": "2014-070A", "EPOCH": "2025-12-05T07:07:56.663040", "MEAN_MOTION": 15.19256443, "ECCENTRICITY": 0.00052351, "INCLINATION": 97.3666, "RA_OF_ASC_NODE": 55.4275, "ARG_OF_PERICENTER": 143.6439, "MEAN_ANOMALY": 216.5152, "EPHEMERIS_TYPE": 0, "CLASSIFICATION_TYPE": "U", "NORAD_CAT_ID": 40298, "ELEMENT_SET_NO": 999, "REV_AT_EPOCH": 61456, "BSTAR": 0.00077860265, "MEAN_MOTION_DOT": 0.00016375, "MEAN_MOTION_DDOT": 0}, "tle": {"line1": "1 40298U 14070A   25339.29718360  .00016375  00000+0  77860-3 0  9995", "line2": "2 40298  97.3666  55.4275 0005235 143.6439 216.5152 15.19256443614569"}}, "geometry": {"type": "Point", "coordinates": [40.1213313862715, 64.45194567833214]}}, {"type": "Feature", "properties": {"norad_id": 40310, "name": "YAOGAN-24", "group": "resource", "lat": 49.60339109889385, "lon": 101.09935759494505, "alt_km": 640.3257131439686, "timestamp": "2025-12-05T16:54:14.326965+00:00", "meta": {"OBJECT_NAME": "YAOGAN-24", "OBJECT_ID": "2014-072A", "EPOCH": "2025-12-05T08:32:32.420256", "MEAN_MOTION": 14.76152659, "ECCENTRICITY": 0.00143957, "INCLINATION": 98.122, "RA_OF_ASC_NODE": 110.4103, "ARG_OF_PERICENTER": 160.8549, "MEAN_ANOMALY": 199.3204, "EPHEMERIS_TYPE": 0, "CLASSIFICATION_TYPE": "U", "NORAD_CAT_ID": 40310, "ELEMENT_SET_NO": 999, "REV_AT_EPOCH": 59512, "BSTAR": 0.00032236709, "MEAN_MOTION_DOT": 2.178e-05, "MEAN_MOTION_DDOT": 0}, "tle": {"line1": "1 40310U 14072A   25339.35593079  .00002178  00000+0  32237-3 0  9992", "line2": "2 40310  98.1220 110.4103 0014395 160.8549 199.3204 14.76152659595123"}}, "geometry": {"type": "Point", "coordinates": [101.09935759494505, 49.60339109889385]}}, {"type": "Feature", "properties": {"norad_id": 40336, "name": "CBERS 4", "group": "resource", "lat": 77.70797318892694, "lon": -99.77147154224379, "alt_km": 765.0866862065559, "timestamp": "2025-12-05T16:54:14.326974+00:00", "meta": {"OBJECT_NAME": "CBERS 4", "OBJECT_ID": "2014-079A", "EPOCH": "2025-12-05T08:04:48.372672", "MEAN_MOTION": 14.35513478, "ECCENTRICITY": 0.00014724, "INCLINATION": 98.332, "RA_OF_ASC_NODE": 37.6065, "ARG_OF_PERICENTER": 122.2643, "MEAN_ANOMALY": 237.8686, "EPHEMERIS_TYPE": 0, "CLASSIFICATION_TYPE": "U", "NORAD_CAT_ID": 40336, "ELEMENT_SET_NO": 999, "REV_AT_EPOCH": 57614, "BSTAR": 0.00013634428, "MEAN_MOTION_DOT": 3.5e-06, "MEAN_MOTION_DDOT": 0}, "tle": {"line1": "1 40336U 14079A   25339.33667098  .00000350  00000+0  13634-3 0  9998", "line2": "2 40336  98.3320  37.6065 0001472 122.2643 237.8686 14.35513478576148"}}, "geometry": {"type": "Point", "coordinates": [-99.77147154224379, 77.70797318892694]}}, {"type": "Feature", "properties": {"norad_id": 40362, "name": "YAOGAN-26", "group": "resource", "lat": -45.96426495410477, "lon": -12.000789774748455, "alt_km": 456.52511348023563, "timestamp": "2025-12-05T16:54:14.326984+00:00", "meta": {"OBJECT_NAME": "YAOGAN-26", "OBJECT_ID": "2014-088A", "EPOCH": "2025-12-05T06:10:52.840992", "MEAN_MOTION": 15.38904494, "ECCENTRICITY": 0.00071553, "INCLINATION": 97.0636, "RA_OF_ASC_NODE": 340.2004, "ARG_OF_PERICENTER": 50.2105, "MEAN_ANOMALY": 309.977, "EPHEMERIS_TYPE": 0, "CLASSIFICATION_TYPE": "U", "NORAD_CAT_ID": 40362, "ELEMENT_SET_NO": 999, "REV_AT_EPOCH": 60779, "BSTAR": 0.00075734816, "MEAN_MOTION_DOT": 0.00029172, "MEAN_MOTION_DDOT": 0}, "tle": {"line1": "1 40362U 14088A   25339.25755603  .00029172  00000+0  75735-3 0  9991", "line2": "2 40362  97.0636 340.2004 0007155  50.2105 309.9770 15.38904494607793"}}, "geometry": {"type": "Point", "coordinates": [-12.000789774748455, -45.96426495410477]}}, {"type": "Feature", "properties": {"norad_id": 40376, "name": "SMAP", "group": "resource", "lat": -41.31679555784696, "lon": -8.252388655537697, "alt_km": 689.538785255585, "timestamp": "2025-12-05T16:54:14.326993+00:00", "meta": {"OBJECT_NAME": "SMAP", "OBJECT_ID": "2015-003A", "EPOCH": "2025-12-05T07:14:54.083040", "MEAN_MOTION": 14.63330289, "ECCENTRICITY": 0.00012089, "INCLINATION": 98.1291, "RA_OF_ASC_NODE": 344.1331, "ARG_OF_PERICENTER": 87.5071, "MEAN_ANOMALY": 272.6269, "EPHEMERIS_TYPE": 0, "CLASSIFICATION_TYPE": "U", "NORAD_CAT_ID": 40376, "ELEMENT_SET_NO": 999, "REV_AT_EPOCH": 57926, "BSTAR": 0.00021892276, "MEAN_MOTION_DOT": 1.083e-05, "MEAN_MOTION_DDOT": 0}, "tle": {"line1": "1 40376U 15003A   25339.30201485  .00001083  00000+0  21892-3 0  9990", "line2": "2 40376  98.1291 344.1331 0001208  87.5071 272.6269 14.63330289579262"}}, "geometry": {"type": "Point", "coordinates": [-8.252388655537697, -41.31679555784696]}}, {"type": "Feature", "properties": {"norad_id": 40536, "name": "KOMPSAT-3A", "group": "resource", "lat": 42.909680157793105, "lon": 140.86856316884672, "alt_km": 429.3877309675081, "timestamp": "2025-12-05T16:54:14.327002+00:00", "meta": {"OBJECT_NAME": "KOMPSAT-3A", "OBJECT_ID": "2015-014A", "EPOCH": "2025-12-05T06:58:46.001280", "MEAN_MOTION": 15.43543788, "ECCENTRICITY": 0.00040084, "INCLINATION": 97.6777, "RA_OF_ASC_NODE": 313.2284, "ARG_OF_PERICENTER": 142.7209, "MEAN_ANOMALY": 217.4316, "EPHEMERIS_TYPE": 0, "CLASSIFICATION_TYPE": "U", "NORAD_CAT_ID": 40536, "ELEMENT_SET_NO": 999, "REV_AT_EPOCH": 59180, "BSTAR": 0.00067738783, "MEAN_MOTION_DOT": 0.00030398, "MEAN_MOTION_DDOT": 0}, "tle": {"line1": "1 40536U 15014A   25339.29081020  .00030398  00000+0  67739-3 0  9990", "line2": "2 40536  97.6777 313.2284 0004008 142.7209 217.4316 15.43543788591808"}}, "geometry": {"type": "Point", "coordinates": [140.86856316884672, 42.909680157793105]}}]}